CCSDS_OEM_VERS = 2.0  
CREATION_DATE  = 2023-05-23T15:08:09
ORIGINATOR     = ESOC/OPS-GFA                            
 
 



META_START
OBJECT_NAME          = LISA                                    
OBJECT_ID            = -1000                                   
CENTER_NAME          = SUN                     
REF_FRAME            = EME2000 
TIME_SYSTEM          = TDB
START_TIME           = 2035-09-12T12:00:00.00000000            
STOP_TIME            = 2046-06-13T01:04:47.99999985            
INTERPOLATION        = HERMITE                                 
INTERPOLATION_DEGREE = 7                                       
META_STOP

2043-11-02T01:53:04.62558511   142516214.289484    44876973.372450    18116447.326102  -9.4923936  25.7732962  11.1108533    -0.000005547454    -0.000001746710    -0.000000705124
2043-11-05T10:36:31.15098782   139525005.030528    52289026.918635    21313800.567494 -11.0878960  25.2236691  10.8878152    -0.000005430084    -0.000002034872    -0.000000829438
2043-11-08T19:19:57.67639068   136075336.949845    59529278.121178    24441125.182616 -12.6467282  24.5912494  10.6290375    -0.000005295152    -0.000002316352    -0.000000951025
2043-11-12T04:03:24.20179355   132178602.664757    66573961.856735    27488155.615880 -14.1638481  23.8781078  10.3353678    -0.000005143091    -0.000002590268    -0.000001069506
2043-11-15T12:46:50.72719641   127847640.202179    73399950.958265    30444888.336455 -15.6343475  23.0865682  10.0077636    -0.000004974387    -0.000002855758    -0.000001184508
2043-11-18T21:37:52.69147863   123088926.253734    79994949.555645    33306007.525060 -17.0556472  22.2177835   9.6466985    -0.000004789270    -0.000003112382    -0.000001295839
2043-11-22T06:28:54.65576084   117924589.264932    86326347.463634    36057376.682871 -18.4207849  21.2757559   9.2538327    -0.000004588577    -0.000003358907    -0.000001402966
2043-11-25T15:19:56.62004305   112371627.163160    92373265.746684    38689922.908939 -19.7253176  20.2635394   8.8304396    -0.000004372939    -0.000003594550    -0.000001505548
2043-11-29T00:10:58.58432511   106448303.152424    98115746.161606    41194957.802735 -20.9649925  19.1844110   8.3778898    -0.000004143030    -0.000003818562    -0.000001603260
2043-12-02T09:05:26.05866178   100169540.334468   103538524.150067    43565828.870816 -22.1365611  18.0410325   7.8972980    -0.000003899394    -0.000004030374    -0.000001695853
2043-12-05T17:59:53.53299830    93560056.109270   108619470.470066    45792868.060490 -23.2352822  16.8378438   7.3905290    -0.000003642950    -0.000004229141    -0.000001782959
2043-12-09T02:54:21.00733481    86641600.846539   113341727.285989    47868687.750797 -24.2575410  15.5787388   6.8592223    -0.000003374500    -0.000004414222    -0.000001864296
2043-12-12T11:48:48.48167148    79436942.907241   117689596.646737    49786389.168563 -25.1999620  14.2677929   6.3050972    -0.000003094883    -0.000004585012    -0.000001939600
2043-12-15T20:55:06.59443824    71951278.469536   121657766.278440    51543657.122894 -26.0614123  12.9058820   5.7285200    -0.000002804255    -0.000004741312    -0.000002008783
2043-12-19T06:01:24.70720515    64226614.774257   125221842.923831    53129720.269526 -26.8366069  11.5005778   5.1326924    -0.000002504202    -0.000004882165    -0.000002071425
2043-12-22T15:07:42.81997191    56288525.100457   128369822.485611    54539240.037200 -27.5229310  10.0564611   4.5195559    -0.000002195669    -0.000005007095    -0.000002127313
2043-12-26T00:14:00.93273883    48163305.318632   131091056.933536    55767453.003053 -28.1180510   8.5782449   3.8911108    -0.000001879633    -0.000005115673    -0.000002176256
2043-12-29T09:33:12.86900349    39855743.480240   133381763.008965    56812701.933694 -28.6211265   7.0667310   3.2476940    -0.000001556236    -0.000005207738    -0.000002218184
2044-01-01T18:52:24.80526815    31414845.759342   135226269.121560    57667896.416892 -29.0286963   5.5307686   2.5930683    -0.000001227339    -0.000005282647    -0.000002252808
2044-01-05T04:11:36.74153281    22868792.173448   136618157.765257    58330070.184047 -29.3393050   3.9754227   1.9293917    -0.000000894002    -0.000005340118    -0.000002279998
2044-01-08T13:30:48.67779748    14246143.484416   137552504.401474    58796893.387045 -29.5518093   2.4058326   1.2588563    -0.000000557298    -0.000005379925    -0.000002299650
2044-01-11T22:17:32.57993431     5633537.249740   138024277.479219    59065541.180637 -29.6649560   0.8377197   0.5881849    -0.000000220582    -0.000005401806    -0.000002311625
2044-01-15T07:04:16.48207098    -2997714.747268   138039361.276919    59138755.373990 -29.6799891  -0.7341822  -0.0848680     0.000000117295    -0.000005405969    -0.000002316021
2044-01-18T15:51:00.38420781   -11619047.147249   137597404.563007    59016164.608973 -29.5967297  -2.3047106  -0.7580930     0.000000455241    -0.000005392354    -0.000002312804
2044-01-22T00:37:44.28634449   -20201888.344698   136699558.211679    58698040.758255 -29.4153174  -3.8686934  -1.4292739     0.000000792157    -0.000005360956    -0.000002301964
2044-01-25T09:02:09.09012990   -28678737.076599   135355731.931698    58188105.594361 -29.1377197  -5.4138521  -2.0931374     0.000001125407    -0.000005312093    -0.000002283616
2044-01-28T17:26:33.89391532   -37061310.336925   133566927.866169    57486878.890507 -28.7640942  -6.9423364  -2.7506028     0.000001455461    -0.000005245769    -0.000002257765
2044-02-01T01:50:58.69770074   -45321960.778212   131338702.482718    56596526.370399 -28.2955230  -8.4491142  -3.3995067     0.000001781236    -0.000005162148    -0.000002224474
2044-02-04T10:15:23.50148616   -53433398.845575   128678060.380555    55519836.689794 -27.7334005  -9.9292091  -4.0377072     0.000002101657    -0.000005061450    -0.000002183829
2044-02-07T18:50:55.75532007   -61386857.844448   125585842.276224    54257102.069468 -27.0778182 -11.3810162  -4.6645163     0.000002416376    -0.000004943662    -0.000002135820
2044-02-11T03:26:28.00915414   -69136966.765717   122077598.876344    52814631.206369 -26.3319889 -12.7962405  -5.2763567     0.000002723591    -0.000004809331    -0.000002080668
2044-02-14T12:02:00.26298821   -76657872.914132   118164635.280867    51197065.566343 -25.4982412 -14.1701379  -5.8711789     0.000003022262    -0.000004658849    -0.000002018535
2044-02-17T20:37:32.51682212   -83924441.710867   113859615.009580    49409633.915178 -24.5792021 -15.4980866  -6.4469831     0.000003311373    -0.000004492666    -0.000001949602
2044-02-21T05:30:15.85015538   -90936652.809591   109159224.325779    47450916.968497 -23.5740879 -16.7800471  -7.0037587     0.000003590900    -0.000004310611    -0.000001873799
2044-02-24T14:22:59.18348863   -97644523.332883   104093500.959899    45333391.847973 -22.4892514 -18.0068394  -7.5375249     0.000003858826    -0.000004113813    -0.000001791593
2044-02-27T23:15:42.51682173  -104025346.629348    98679124.563649    43064026.013739 -21.3282080 -19.1742590  -8.0464541     0.000004114211    -0.000003902888    -0.000001703239
2044-03-02T08:08:25.85015498  -110057477.874747    92933971.577604    40650307.665635 -20.0947415 -20.2782888  -8.5287968     0.000004356152    -0.000003678505    -0.000001609018
2044-03-05T17:17:39.90824189  -115739029.142708    86855940.328355    38091322.144572 -18.7883515 -21.3185230  -8.9843828     0.000004584536    -0.000003440555    -0.000001508882
2044-03-09T02:26:53.96632880  -121029380.177819    80484329.575797    35403585.038009 -17.4174433 -22.2874598  -9.4099347     0.000004797690    -0.000003190557    -0.000001403468
2044-03-12T11:36:08.02441586  -125910343.496057    73840471.972504    32596091.415848 -15.9865816 -23.1816980  -9.8039605     0.000004994835    -0.000002929332    -0.000001293123
2044-03-15T20:45:22.08250277  -130365096.360106    66946657.815055    29678257.016567 -14.5005505 -23.9980835 -10.1650725     0.000005175246    -0.000002657749    -0.000001178213
2044-03-19T06:01:49.41966337  -134383861.912863    59815344.645424    26655341.178510 -12.9620253 -24.7347513 -10.4924512     0.000005338481    -0.000002376291    -0.000001058941
2044-03-22T15:18:16.75682397  -137945743.070968    52480664.254642    23541799.270903 -11.3783695 -25.3877974 -10.7843679     0.000005483643    -0.000002086308    -0.000000935878
2044-03-26T00:34:44.09398457  -141038317.405308    44967434.328594    20348163.426042  -9.7549534 -25.9548707 -11.0397741     0.000005610178    -0.000001788786    -0.000000809442
2044-03-29T09:51:11.43114517  -143650755.277517    37301117.704982    17085254.383352  -8.0973000 -26.4339140 -11.2577462     0.000005717597    -0.000001484746    -0.000000680067
2044-04-01T19:21:08.59999843  -145779054.338691    29486012.334902    13754881.784820  -6.4063644 -26.8241241 -11.4379327     0.000005805694    -0.000001174372    -0.000000547830
2044-04-05T04:51:05.76885153  -147407731.630235    21569846.497044    10377365.597572  -4.6925084 -27.1225966 -11.5790096     0.000005873786    -0.000000859580    -0.000000413547
2044-04-08T14:21:02.93770479  -148530928.210007    13579710.070689     6964261.791378  -2.9616444 -27.3281965 -11.6804454     0.000005921590    -0.000000541473    -0.000000277687
2044-04-11T23:51:00.10655790  -149144529.739181     5542978.455235     3527262.104558  -1.2197577 -27.4401155 -11.7418473     0.000005948896    -0.000000221173    -0.000000140729
2044-04-15T08:44:10.40626932  -149247336.026915    -2452188.347008      104111.936421   0.5139723 -27.4580940 -11.7629560     0.000005955592     0.000000097771    -0.000000004192
2044-04-18T17:37:20.70598090  -148845300.877519   -10439065.403639    -3319392.779688   2.2466850 -27.3831821 -11.7442763     0.000005941905     0.000000416646     0.000000132472
2044-04-22T02:30:31.00569232  -147939585.286875   -18390622.873157    -6731667.487806   3.9724449 -27.2155628 -11.6858408     0.000005907848     0.000000734332     0.000000268785
